AEROCUBE 6B             
1 40046U 14033AN  26064.68612554  .00009698  00000+0  81056-3 0  9994
2 40046  97.7119 232.4689 0037613 356.0403   4.0516 14.98162628631255
CANX-4                  
1 40055U 14034C   26064.58983060  .00001649  00000+0  21973-3 0  9997
2 40055  98.3283 296.0200 0012615 349.9844  10.1114 14.81049876629197
CANX-5                  
1 40056U 14034D   26064.58944980  .00001646  00000+0  21934-3 0  9990
2 40056  98.3284 296.0572 0012612 350.1508   9.9454 14.81066541620001
UKUBE-1                 
1 40074U 14037F   26064.51358203  .00013102  00000+0  77337-3 0  9991
2 40074  98.4230  57.0506 0002853 115.8299 244.3223 15.11681951632884
BRITE-PL2 (HEWELIUSZ)   
1 40119U 14049B   26064.72199476  .00004112  00000+0  38877-3 0  9999
2 40119  97.8984 176.0294 0015602  93.5209 266.7796 14.94158096625994
AEROCUBE 5C             
1 40965U 15058B   26064.68712980  .00005716  00000+0  50632-3 0  9999
2 40965  64.7669 224.4182 0130917 104.0828 257.4876 14.90813819350226
AEROCUBE 7              
1 40966U 15058C   26064.70340439  .00007242  00000+0  58641-3 0  9993
2 40966  64.7625 208.7339 0120856 103.1700 258.2931 14.94843040350480
FOX-1A (AO-85)          
1 40967U 15058D   26064.70042630  .00005287  00000+0  47790-3 0  9996
2 40967  64.7739 240.4268 0129073  97.5167 264.0629 14.90314048 98142
SINOD-D 1               
1 40968U 15058E   26064.62625141  .00007404  00000+0  60153-3 0  9993
2 40968  64.7751 223.0011 0117458  94.8707 266.5829 14.94995860101172
SNAP-3 ALICE            
1 40970U 15058G   26064.42794074  .00067939  00000+0  14829-2 0  9993
2 40970  64.7553  97.6929 0037580  70.2583 290.2601 15.43053335100791
LMRST-SAT               
1 40971U 15058H   26064.69698822  .00005316  00000+0  48255-3 0  9999
2 40971  64.7746 236.5831 0131203  99.4573 262.1396 14.89946833 98137
SNAP-3 EDDIE            
1 40972U 15058J   26064.49222010  .00067214  00000+0  14162-2 0  9994
2 40972  64.7477  88.8931 0038690  75.3609 285.1813 15.44048235102931
PROPCUBE 3              
1 40973U 15058K   26064.71436889  .00006662  00000+0  55692-3 0  9995
2 40973  64.7687 215.6329 0123774 101.2541 260.2513 14.93478208 99349
BISONSAT                
1 40974U 15058L   26064.66093681  .00014949  00000+0  77377-3 0  9990
2 40974  64.7602 147.7349 0079526  92.5058 268.5172 15.13675233 99931
SNAP-3 JIMI             
1 40975U 15058M   26064.70094829  .00009089  00000+0  64046-3 0  9999
2 40975  64.7664 186.8960 0105738  98.1415 263.1712 15.01064072 98689
PROPCUBE 1 (FLORA)      
1 40976U 15058N   26064.69184243  .00005038  00000+0  47563-3 0  9993
2 40976  64.7731 255.8448 0130360 101.7645 259.8124 14.88599395100855
SINOD-D 3               
1 40977U 15058P   26064.65977398  .00007078  00000+0  60283-3 0  9991
2 40977  64.7715 238.8937 0118781  99.8068 261.6481 14.93154833 99293
