[{"OBJECT_NAME":"AEROCUBE 6B","OBJECT_ID":"2014-033AN","EPOCH":"2026-03-05T16:28:01.246656","MEAN_MOTION":14.98162628,"ECCENTRICITY":0.0037613,"INCLINATION":97.7119,"RA_OF_ASC_NODE":232.4689,"ARG_OF_PERICENTER":356.0403,"MEAN_ANOMALY":4.0516,"EPHEMERIS_TYPE":0,"CLASSIFICATION_TYPE":"U","NORAD_CAT_ID":40046,"ELEMENT_SET_NO":999,"REV_AT_EPOCH":63125,"BSTAR":0.00081056,"MEAN_MOTION_DOT":9.698e-5,"MEAN_MOTION_DDOT":0},{"OBJECT_NAME":"CANX-4","OBJECT_ID":"2014-034C","EPOCH":"2026-03-05T14:09:21.363840","MEAN_MOTION":14.81049876,"ECCENTRICITY":0.0012615,"INCLINATION":98.3283,"RA_OF_ASC_NODE":296.02,"ARG_OF_PERICENTER":349.9844,"MEAN_ANOMALY":10.1114,"EPHEMERIS_TYPE":0,"CLASSIFICATION_TYPE":"U","NORAD_CAT_ID":40055,"ELEMENT_SET_NO":999,"REV_AT_EPOCH":62919,"BSTAR":0.00021973,"MEAN_MOTION_DOT":1.649e-5,"MEAN_MOTION_DDOT":0},{"OBJECT_NAME":"CANX-5","OBJECT_ID":"2014-034D","EPOCH":"2026-03-05T14:08:48.462720","MEAN_MOTION":14.81066541,"ECCENTRICITY":0.0012612,"INCLINATION":98.3284,"RA_OF_ASC_NODE":296.0572,"ARG_OF_PERICENTER":350.1508,"MEAN_ANOMALY":9.9454,"EPHEMERIS_TYPE":0,"CLASSIFICATION_TYPE":"U","NORAD_CAT_ID":40056,"ELEMENT_SET_NO":999,"REV_AT_EPOCH":62000,"BSTAR":0.00021934,"MEAN_MOTION_DOT":1.646e-5,"MEAN_MOTION_DDOT":0},{"OBJECT_NAME":"UKUBE-1","OBJECT_ID":"2014-037F","EPOCH":"2026-03-05T12:19:33.487392","MEAN_MOTION":15.11681951,"ECCENTRICITY":0.0002853,"INCLINATION":98.423,"RA_OF_ASC_NODE":57.0506,"ARG_OF_PERICENTER":115.8299,"MEAN_ANOMALY":244.3223,"EPHEMERIS_TYPE":0,"CLASSIFICATION_TYPE":"U","NORAD_CAT_ID":40074,"ELEMENT_SET_NO":999,"REV_AT_EPOCH":63288,"BSTAR":0.00077337,"MEAN_MOTION_DOT":0.00013102,"MEAN_MOTION_DDOT":0},{"OBJECT_NAME":"BRITE-PL2 (HEWELIUSZ)","OBJECT_ID":"2014-049B","EPOCH":"2026-03-05T17:19:40.347264","MEAN_MOTION":14.94158096,"ECCENTRICITY":0.0015602,"INCLINATION":97.8984,"RA_OF_ASC_NODE":176.0294,"ARG_OF_PERICENTER":93.5209,"MEAN_ANOMALY":266.7796,"EPHEMERIS_TYPE":0,"CLASSIFICATION_TYPE":"U","NORAD_CAT_ID":40119,"ELEMENT_SET_NO":999,"REV_AT_EPOCH":62599,"BSTAR":0.00038877,"MEAN_MOTION_DOT":4.112e-5,"MEAN_MOTION_DDOT":0},{"OBJECT_NAME":"AEROCUBE 5C","OBJECT_ID":"2015-058B","EPOCH":"2026-03-05T16:29:28.014720","MEAN_MOTION":14.90813819,"ECCENTRICITY":0.0130917,"INCLINATION":64.7669,"RA_OF_ASC_NODE":224.4182,"ARG_OF_PERICENTER":104.0828,"MEAN_ANOMALY":257.4876,"EPHEMERIS_TYPE":0,"CLASSIFICATION_TYPE":"U","NORAD_CAT_ID":40965,"ELEMENT_SET_NO":999,"REV_AT_EPOCH":35022,"BSTAR":0.00050632,"MEAN_MOTION_DOT":5.716e-5,"MEAN_MOTION_DDOT":0},{"OBJECT_NAME":"AEROCUBE 7","OBJECT_ID":"2015-058C","EPOCH":"2026-03-05T16:52:54.139296","MEAN_MOTION":14.9484304,"ECCENTRICITY":0.0120856,"INCLINATION":64.7625,"RA_OF_ASC_NODE":208.7339,"ARG_OF_PERICENTER":103.17,"MEAN_ANOMALY":258.2931,"EPHEMERIS_TYPE":0,"CLASSIFICATION_TYPE":"U","NORAD_CAT_ID":40966,"ELEMENT_SET_NO":999,"REV_AT_EPOCH":35048,"BSTAR":0.00058641,"MEAN_MOTION_DOT":7.242e-5,"MEAN_MOTION_DDOT":0},{"OBJECT_NAME":"FOX-1A (AO-85)","OBJECT_ID":"2015-058D","EPOCH":"2026-03-05T16:48:36.832320","MEAN_MOTION":14.90314048,"ECCENTRICITY":0.0129073,"INCLINATION":64.7739,"RA_OF_ASC_NODE":240.4268,"ARG_OF_PERICENTER":97.5167,"MEAN_ANOMALY":264.0629,"EPHEMERIS_TYPE":0,"CLASSIFICATION_TYPE":"U","NORAD_CAT_ID":40967,"ELEMENT_SET_NO":999,"REV_AT_EPOCH":9814,"BSTAR":0.0004779,"MEAN_MOTION_DOT":5.287e-5,"MEAN_MOTION_DDOT":0},{"OBJECT_NAME":"SINOD-D 1","OBJECT_ID":"2015-058E","EPOCH":"2026-03-05T15:01:48.121824","MEAN_MOTION":14.9499586,"ECCENTRICITY":0.0117458,"INCLINATION":64.7751,"RA_OF_ASC_NODE":223.0011,"ARG_OF_PERICENTER":94.8707,"MEAN_ANOMALY":266.5829,"EPHEMERIS_TYPE":0,"CLASSIFICATION_TYPE":"U","NORAD_CAT_ID":40968,"ELEMENT_SET_NO":999,"REV_AT_EPOCH":10117,"BSTAR":0.00060153,"MEAN_MOTION_DOT":7.404e-5,"MEAN_MOTION_DDOT":0},{"OBJECT_NAME":"SNAP-3 ALICE","OBJECT_ID":"2015-058G","EPOCH":"2026-03-05T10:16:14.079936","MEAN_MOTION":15.43053335,"ECCENTRICITY":0.003758,"INCLINATION":64.7553,"RA_OF_ASC_NODE":97.6929,"ARG_OF_PERICENTER":70.2583,"MEAN_ANOMALY":290.2601,"EPHEMERIS_TYPE":0,"CLASSIFICATION_TYPE":"U","NORAD_CAT_ID":40970,"ELEMENT_SET_NO":999,"REV_AT_EPOCH":10079,"BSTAR":0.0014829,"MEAN_MOTION_DOT":0.00067939,"MEAN_MOTION_DDOT":0},{"OBJECT_NAME":"LMRST-SAT","OBJECT_ID":"2015-058H","EPOCH":"2026-03-05T16:43:39.782208","MEAN_MOTION":14.89946833,"ECCENTRICITY":0.0131203,"INCLINATION":64.7746,"RA_OF_ASC_NODE":236.5831,"ARG_OF_PERICENTER":99.4573,"MEAN_ANOMALY":262.1396,"EPHEMERIS_TYPE":0,"CLASSIFICATION_TYPE":"U","NORAD_CAT_ID":40971,"ELEMENT_SET_NO":999,"REV_AT_EPOCH":9813,"BSTAR":0.00048255,"MEAN_MOTION_DOT":5.316e-5,"MEAN_MOTION_DDOT":0},{"OBJECT_NAME":"SNAP-3 EDDIE","OBJECT_ID":"2015-058J","EPOCH":"2026-03-05T11:48:47.816640","MEAN_MOTION":15.44048235,"ECCENTRICITY":0.003869,"INCLINATION":64.7477,"RA_OF_ASC_NODE":88.8931,"ARG_OF_PERICENTER":75.3609,"MEAN_ANOMALY":285.1813,"EPHEMERIS_TYPE":0,"CLASSIFICATION_TYPE":"U","NORAD_CAT_ID":40972,"ELEMENT_SET_NO":999,"REV_AT_EPOCH":10293,"BSTAR":0.0014162,"MEAN_MOTION_DOT":0.00067214,"MEAN_MOTION_DDOT":0},{"OBJECT_NAME":"PROPCUBE 3","OBJECT_ID":"2015-058K","EPOCH":"2026-03-05T17:08:41.472096","MEAN_MOTION":14.93478208,"ECCENTRICITY":0.0123774,"INCLINATION":64.7687,"RA_OF_ASC_NODE":215.6329,"ARG_OF_PERICENTER":101.2541,"MEAN_ANOMALY":260.2513,"EPHEMERIS_TYPE":0,"CLASSIFICATION_TYPE":"U","NORAD_CAT_ID":40973,"ELEMENT_SET_NO":999,"REV_AT_EPOCH":9934,"BSTAR":0.00055692,"MEAN_MOTION_DOT":6.662e-5,"MEAN_MOTION_DDOT":0},{"OBJECT_NAME":"BISONSAT","OBJECT_ID":"2015-058L","EPOCH":"2026-03-05T15:51:44.940384","MEAN_MOTION":15.13675233,"ECCENTRICITY":0.0079526,"INCLINATION":64.7602,"RA_OF_ASC_NODE":147.7349,"ARG_OF_PERICENTER":92.5058,"MEAN_ANOMALY":268.5172,"EPHEMERIS_TYPE":0,"CLASSIFICATION_TYPE":"U","NORAD_CAT_ID":40974,"ELEMENT_SET_NO":999,"REV_AT_EPOCH":9993,"BSTAR":0.00077377,"MEAN_MOTION_DOT":0.00014949,"MEAN_MOTION_DDOT":0},{"OBJECT_NAME":"SNAP-3 JIMI","OBJECT_ID":"2015-058M","EPOCH":"2026-03-05T16:49:21.932256","MEAN_MOTION":15.01064072,"ECCENTRICITY":0.0105738,"INCLINATION":64.7664,"RA_OF_ASC_NODE":186.896,"ARG_OF_PERICENTER":98.1415,"MEAN_ANOMALY":263.1712,"EPHEMERIS_TYPE":0,"CLASSIFICATION_TYPE":"U","NORAD_CAT_ID":40975,"ELEMENT_SET_NO":999,"REV_AT_EPOCH":9868,"BSTAR":0.00064046,"MEAN_MOTION_DOT":9.089e-5,"MEAN_MOTION_DDOT":0},{"OBJECT_NAME":"PROPCUBE 1 (FLORA)","OBJECT_ID":"2015-058N","EPOCH":"2026-03-05T16:36:15.185952","MEAN_MOTION":14.88599395,"ECCENTRICITY":0.013036,"INCLINATION":64.7731,"RA_OF_ASC_NODE":255.8448,"ARG_OF_PERICENTER":101.7645,"MEAN_ANOMALY":259.8124,"EPHEMERIS_TYPE":0,"CLASSIFICATION_TYPE":"U","NORAD_CAT_ID":40976,"ELEMENT_SET_NO":999,"REV_AT_EPOCH":10085,"BSTAR":0.00047563,"MEAN_MOTION_DOT":5.038e-5,"MEAN_MOTION_DDOT":0},{"OBJECT_NAME":"SINOD-D 3","OBJECT_ID":"2015-058P","EPOCH":"2026-03-05T15:50:04.471872","MEAN_MOTION":14.93154833,"ECCENTRICITY":0.0118781,"INCLINATION":64.7715,"RA_OF_ASC_NODE":238.8937,"ARG_OF_PERICENTER":99.8068,"MEAN_ANOMALY":261.6481,"EPHEMERIS_TYPE":0,"CLASSIFICATION_TYPE":"U","NORAD_CAT_ID":40977,"ELEMENT_SET_NO":999,"REV_AT_EPOCH":9929,"BSTAR":0.00060283,"MEAN_MOTION_DOT":7.078e-5,"MEAN_MOTION_DDOT":0}]
